KUIPER-00268            
1 67790U 26030AC  26065.17822561  .00036593  00000+0  10386-2 0  9996
2 67790  51.8843 236.0422 0002505  38.1032 322.0131 15.35856274  4550
KUIPER-00270            
1 67791U 26030AD  26065.26295026  .00033149  00000+0  98217-3 0  9991
2 67791  51.8813 235.8450 0010236  46.8405 313.3434 15.34510359  4566
KUIPER-00274            
1 67792U 26030AE  26065.09520931 -.00063466  00000+0 -20862-2 0  9996
2 67792  51.8814 236.9671 0018077  61.5629 298.7174 15.30942893  4530
KUIPER-00275            
1 67793U 26030AF  26065.26029408  .00033887  00000+0  10017-2 0  9992
2 67793  51.8848 235.8367 0008932  44.1960 315.9737 15.34583752  4561
KUIPER-00276            
1 67794U 26030AG  26065.16430178 -.00031809  00000+0 -10253-2 0  9998
2 67794  51.8812 236.6777 0018681  57.7272 302.5519 15.31235035  4548
KUIPER-00279            
1 67795U 26030AH  26065.18804810  .00034828  00000+0  10081-2 0  9990
2 67795  51.8808 236.0959 0006579  37.7331 322.4115 15.35250306  4553
CREW DRAGON 12          
1 67796U 26031A   26065.22200803  .00008136  00000+0  15844-3 0  9995
2 67796  51.6317  89.5003 0008136 162.2758 197.8515 15.48470661555670
STARLINK-36800          
1 67797U 26032A   26065.26304024  .00125140  00000+0  82664-3 0  9990
2 67797  97.2845 251.5758 0001468  86.7272 273.4161 15.75217336  4241
STARLINK-36798          
1 67798U 26032B   26065.25002315  .00070018  00000+0  46727-3 0  9991
2 67798  97.2854 251.6035 0001676  91.0544 287.3274 15.75149301  4169
STARLINK-36804          
1 67799U 26032C   26065.26126520  .00263069  00000+0  17011-2 0  9991
2 67799  97.2846 251.5790 0001616  82.6800 277.4649 15.75321352  4246
STARLINK-36354          
1 67800U 26032D   26065.25002315  .00023944  00000+0  16107-3 0  9990
2 67800  97.2854 251.5966 0001731  90.8893 267.4863 15.75172692  4220
STARLINK-36773          
1 67801U 26032E   26065.25809968  .00130870  00000+0  86385-3 0  9992
2 67801  97.2847 251.5831 0001509  65.3886 294.7536 15.75218079  4248
