CCSDS_OMM_VERS = 2.0
CREATION_DATE  = 
ORIGINATOR     = 

OBJECT_NAME    = KUIPER-00268
OBJECT_ID      = 2026-030AC
CENTER_NAME    = EARTH
REF_FRAME      = TEME
TIME_SYSTEM    = UTC
MEAN_ELEMENT_THEORY = SGP/SGP4

EPOCH          = 2026-03-06T04:16:38.692704
MEAN_MOTION    = 15.35856274
ECCENTRICITY   = .00025058
INCLINATION    = 51.8843
RA_OF_ASC_NODE = 236.0422
ARG_OF_PERICENTER = 38.1032
MEAN_ANOMALY   = 322.0131

EPHEMERIS_TYPE = 0
CLASSIFICATION_TYPE = U
NORAD_CAT_ID   = 67790
ELEMENT_SET_NO = 999
REV_AT_EPOCH   = 455
BSTAR          = .10386129E-2
MEAN_MOTION_DOT = .36593E-3
MEAN_MOTION_DDOT = 0

CCSDS_OMM_VERS = 2.0
CREATION_DATE  = 
ORIGINATOR     = 

OBJECT_NAME    = KUIPER-00270
OBJECT_ID      = 2026-030AD
CENTER_NAME    = EARTH
REF_FRAME      = TEME
TIME_SYSTEM    = UTC
MEAN_ELEMENT_THEORY = SGP/SGP4

EPOCH          = 2026-03-06T06:18:38.902464
MEAN_MOTION    = 15.34510359
ECCENTRICITY   = .00102362
INCLINATION    = 51.8813
RA_OF_ASC_NODE = 235.8450
ARG_OF_PERICENTER = 46.8405
MEAN_ANOMALY   = 313.3434

EPHEMERIS_TYPE = 0
CLASSIFICATION_TYPE = U
NORAD_CAT_ID   = 67791
ELEMENT_SET_NO = 999
REV_AT_EPOCH   = 456
BSTAR          = .98216836E-3
MEAN_MOTION_DOT = .33149E-3
MEAN_MOTION_DDOT = 0

CCSDS_OMM_VERS = 2.0
CREATION_DATE  = 
ORIGINATOR     = 

OBJECT_NAME    = KUIPER-00274
OBJECT_ID      = 2026-030AE
CENTER_NAME    = EARTH
REF_FRAME      = TEME
TIME_SYSTEM    = UTC
MEAN_ELEMENT_THEORY = SGP/SGP4

EPOCH          = 2026-03-06T02:17:06.084384
MEAN_MOTION    = 15.30942893
ECCENTRICITY   = .00180776
INCLINATION    = 51.8814
RA_OF_ASC_NODE = 236.9671
ARG_OF_PERICENTER = 61.5629
MEAN_ANOMALY   = 298.7174

EPHEMERIS_TYPE = 0
CLASSIFICATION_TYPE = U
NORAD_CAT_ID   = 67792
ELEMENT_SET_NO = 999
REV_AT_EPOCH   = 453
BSTAR          = -.20861916E-2
MEAN_MOTION_DOT = -.63466E-3
MEAN_MOTION_DDOT = 0

CCSDS_OMM_VERS = 2.0
CREATION_DATE  = 
ORIGINATOR     = 

OBJECT_NAME    = KUIPER-00275
OBJECT_ID      = 2026-030AF
CENTER_NAME    = EARTH
REF_FRAME      = TEME
TIME_SYSTEM    = UTC
MEAN_ELEMENT_THEORY = SGP/SGP4

EPOCH          = 2026-03-06T06:14:49.408512
MEAN_MOTION    = 15.34583752
ECCENTRICITY   = .00089325
INCLINATION    = 51.8848
RA_OF_ASC_NODE = 235.8367
ARG_OF_PERICENTER = 44.1960
MEAN_ANOMALY   = 315.9737

EPHEMERIS_TYPE = 0
CLASSIFICATION_TYPE = U
NORAD_CAT_ID   = 67793
ELEMENT_SET_NO = 999
REV_AT_EPOCH   = 456
BSTAR          = .10017099E-2
MEAN_MOTION_DOT = .33887E-3
MEAN_MOTION_DDOT = 0

CCSDS_OMM_VERS = 2.0
CREATION_DATE  = 
ORIGINATOR     = 

OBJECT_NAME    = KUIPER-00276
OBJECT_ID      = 2026-030AG
CENTER_NAME    = EARTH
REF_FRAME      = TEME
TIME_SYSTEM    = UTC
MEAN_ELEMENT_THEORY = SGP/SGP4

EPOCH          = 2026-03-06T03:56:35.673792
MEAN_MOTION    = 15.31235035
ECCENTRICITY   = .00186819
INCLINATION    = 51.8812
RA_OF_ASC_NODE = 236.6777
ARG_OF_PERICENTER = 57.7272
MEAN_ANOMALY   = 302.5519

EPHEMERIS_TYPE = 0
CLASSIFICATION_TYPE = U
NORAD_CAT_ID   = 67794
ELEMENT_SET_NO = 999
REV_AT_EPOCH   = 454
BSTAR          = -.10253292E-2
MEAN_MOTION_DOT = -.31809E-3
MEAN_MOTION_DDOT = 0

CCSDS_OMM_VERS = 2.0
CREATION_DATE  = 
ORIGINATOR     = 

OBJECT_NAME    = KUIPER-00279
OBJECT_ID      = 2026-030AH
CENTER_NAME    = EARTH
REF_FRAME      = TEME
TIME_SYSTEM    = UTC
MEAN_ELEMENT_THEORY = SGP/SGP4

EPOCH          = 2026-03-06T04:30:47.355840
MEAN_MOTION    = 15.35250306
ECCENTRICITY   = .00065791
INCLINATION    = 51.8808
RA_OF_ASC_NODE = 236.0959
ARG_OF_PERICENTER = 37.7331
MEAN_ANOMALY   = 322.4115

EPHEMERIS_TYPE = 0
CLASSIFICATION_TYPE = U
NORAD_CAT_ID   = 67795
ELEMENT_SET_NO = 999
REV_AT_EPOCH   = 455
BSTAR          = .10080813E-2
MEAN_MOTION_DOT = .34828E-3
MEAN_MOTION_DDOT = 0

CCSDS_OMM_VERS = 2.0
CREATION_DATE  = 
ORIGINATOR     = 

OBJECT_NAME    = CREW DRAGON 12
OBJECT_ID      = 2026-031A
CENTER_NAME    = EARTH
REF_FRAME      = TEME
TIME_SYSTEM    = UTC
MEAN_ELEMENT_THEORY = SGP/SGP4

EPOCH          = 2026-03-06T05:19:41.493792
MEAN_MOTION    = 15.48470661
ECCENTRICITY   = .00081363
INCLINATION    = 51.6317
RA_OF_ASC_NODE = 89.5003
ARG_OF_PERICENTER = 162.2758
MEAN_ANOMALY   = 197.8515

EPHEMERIS_TYPE = 0
CLASSIFICATION_TYPE = U
NORAD_CAT_ID   = 67796
ELEMENT_SET_NO = 999
REV_AT_EPOCH   = 55567
BSTAR          = .15844115E-3
MEAN_MOTION_DOT = .8136E-4
MEAN_MOTION_DDOT = 0

CCSDS_OMM_VERS = 2.0
CREATION_DATE  = 
ORIGINATOR     = 

OBJECT_NAME    = STARLINK-36800
OBJECT_ID      = 2026-032A
CENTER_NAME    = EARTH
REF_FRAME      = TEME
TIME_SYSTEM    = UTC
MEAN_ELEMENT_THEORY = SGP/SGP4

EPOCH          = 2026-03-06T06:18:46.676736
MEAN_MOTION    = 15.75217336
ECCENTRICITY   = .00014681
INCLINATION    = 97.2845
RA_OF_ASC_NODE = 251.5758
ARG_OF_PERICENTER = 86.7272
MEAN_ANOMALY   = 273.4161

EPHEMERIS_TYPE = 0
CLASSIFICATION_TYPE = U
NORAD_CAT_ID   = 67797
ELEMENT_SET_NO = 999
REV_AT_EPOCH   = 424
BSTAR          = .82664274E-3
MEAN_MOTION_DOT = .12514E-2
MEAN_MOTION_DDOT = 0

CCSDS_OMM_VERS = 2.0
CREATION_DATE  = 
ORIGINATOR     = 

OBJECT_NAME    = STARLINK-36798
OBJECT_ID      = 2026-032B
CENTER_NAME    = EARTH
REF_FRAME      = TEME
TIME_SYSTEM    = UTC
MEAN_ELEMENT_THEORY = SGP/SGP4

EPOCH          = 2026-03-06T06:00:02.000160
MEAN_MOTION    = 15.75149301
ECCENTRICITY   = .00016763
INCLINATION    = 97.2854
RA_OF_ASC_NODE = 251.6035
ARG_OF_PERICENTER = 91.0544
MEAN_ANOMALY   = 287.3274

EPHEMERIS_TYPE = 0
CLASSIFICATION_TYPE = U
NORAD_CAT_ID   = 67798
ELEMENT_SET_NO = 999
REV_AT_EPOCH   = 416
BSTAR          = .46726759E-3
MEAN_MOTION_DOT = .70018E-3
MEAN_MOTION_DDOT = 0

CCSDS_OMM_VERS = 2.0
CREATION_DATE  = 
ORIGINATOR     = 

OBJECT_NAME    = STARLINK-36804
OBJECT_ID      = 2026-032C
CENTER_NAME    = EARTH
REF_FRAME      = TEME
TIME_SYSTEM    = UTC
MEAN_ELEMENT_THEORY = SGP/SGP4

EPOCH          = 2026-03-06T06:16:13.313280
MEAN_MOTION    = 15.75321352
ECCENTRICITY   = .00016161
INCLINATION    = 97.2846
RA_OF_ASC_NODE = 251.5790
ARG_OF_PERICENTER = 82.6800
MEAN_ANOMALY   = 277.4649

EPHEMERIS_TYPE = 0
CLASSIFICATION_TYPE = U
NORAD_CAT_ID   = 67799
ELEMENT_SET_NO = 999
REV_AT_EPOCH   = 424
BSTAR          = .17011353E-2
MEAN_MOTION_DOT = .263069E-2
MEAN_MOTION_DDOT = 0

CCSDS_OMM_VERS = 2.0
CREATION_DATE  = 
ORIGINATOR     = 

OBJECT_NAME    = STARLINK-36354
OBJECT_ID      = 2026-032D
CENTER_NAME    = EARTH
REF_FRAME      = TEME
TIME_SYSTEM    = UTC
MEAN_ELEMENT_THEORY = SGP/SGP4

EPOCH          = 2026-03-06T06:00:02.000160
MEAN_MOTION    = 15.75172692
ECCENTRICITY   = .00017312
INCLINATION    = 97.2854
RA_OF_ASC_NODE = 251.5966
ARG_OF_PERICENTER = 90.8893
MEAN_ANOMALY   = 267.4863

EPHEMERIS_TYPE = 0
CLASSIFICATION_TYPE = U
NORAD_CAT_ID   = 67800
ELEMENT_SET_NO = 999
REV_AT_EPOCH   = 422
BSTAR          = .16106639E-3
MEAN_MOTION_DOT = .23944E-3
MEAN_MOTION_DDOT = 0

CCSDS_OMM_VERS = 2.0
CREATION_DATE  = 
ORIGINATOR     = 

OBJECT_NAME    = STARLINK-36773
OBJECT_ID      = 2026-032E
CENTER_NAME    = EARTH
REF_FRAME      = TEME
TIME_SYSTEM    = UTC
MEAN_ELEMENT_THEORY = SGP/SGP4

EPOCH          = 2026-03-06T06:11:39.812352
MEAN_MOTION    = 15.75218079
ECCENTRICITY   = .00015095
INCLINATION    = 97.2847
RA_OF_ASC_NODE = 251.5831
ARG_OF_PERICENTER = 65.3886
MEAN_ANOMALY   = 294.7536

EPHEMERIS_TYPE = 0
CLASSIFICATION_TYPE = U
NORAD_CAT_ID   = 67801
ELEMENT_SET_NO = 999
REV_AT_EPOCH   = 424
BSTAR          = .86384533E-3
MEAN_MOTION_DOT = .13087E-2
MEAN_MOTION_DDOT = 0

